STARLINK-34313          
1 64166U 25112W   25214.91668981  .00011043  00000+0  76836-3 0  9997
2 64166  97.6044 265.9098 0002690  65.4580 195.0631 15.05648416 11433
STARLINK-34309          
1 64167U 25112X   25214.58334491  .00062762  00000+0  43178-2 0  9993
2 64167  97.6033 265.5983 0001114  74.1914 225.5938 15.05631683  5899
STARLINK-34303          
1 64168U 25112Y   25214.59538382  .00003321  00000+0  22932-3 0  9992
2 64168  97.6035 265.6110 0002045  99.9056 260.2402 15.06448914 11546
STARLINK-34175          
1 64169U 25112Z   25214.10741805  .00003538  00000+0  24377-3 0  9991
2 64169  97.6021 265.0226 0000338 118.7417 241.3844 15.06482911 10261
STARLINK-34177          
1 64170U 25113A   25214.86525838  .00031607  00000+0  10740-2 0  9999
2 64170  53.1616  27.4471 0002298  74.9981 285.1274 15.30221336 11564
STARLINK-34228          
1 64171U 25113B   25214.51968342  .00030041  00000+0  10215-2 0  9991
2 64171  53.1600  28.8447 0001730 327.0558  33.0334 15.30225594 11510
STARLINK-34233          
1 64172U 25113C   25214.48708448  .00031221  00000+0  10615-2 0  9992
2 64172  53.1611  29.3537 0001560  84.4768 275.6411 15.30209393 11505
STARLINK-34172          
1 64173U 25113D   25214.84731269  .00021494  00000+0  73570-3 0  9991
2 64173  53.1583  27.3346 0001146  87.6452 272.4680 15.30201593 11524
STARLINK-34202          
1 64174U 25113E   25214.87158120  .00020816  00000+0  71244-3 0  9997
2 64174  53.1617  27.4823 0000549 320.2766  39.8195 15.30223625 11564
STARLINK-34231          
1 64175U 25113F   25214.49552593  .00031020  00000+0  10544-2 0  9992
2 64175  53.1602  29.4006 0001962 322.8711  37.2154 15.30221084 11500
STARLINK-34191          
1 64176U 25113G   25214.50702087  .00024783  00000+0  84575-3 0  9994
2 64176  53.1582  28.7623 0000927 347.8743  12.2236 15.30212646 11516
STARLINK-34164          
1 64177U 25113H   25214.50292386  .00022394  00000+0  76533-3 0  9992
2 64177  53.1602  29.4505 0001318  84.9883 275.1268 15.30226001 11500
STARLINK-34227          
1 64178U 25113J   25214.87474581  .00037367  00000+0  12645-2 0  9991
2 64178  53.1613  27.5031 0001659 143.0540 217.0576 15.30274395 11563
STARLINK-34194          
1 64179U 25113K   25214.51231435  .00038707  00000+0  13118-2 0  9997
2 64179  53.1594  28.7986 0001998 316.4942  43.5901 15.30208857 11511
STARLINK-34000          
1 64180U 25113L   25214.85998527  .00032113  00000+0  10910-2 0  9990
2 64180  53.1610  27.4097 0002968  69.4976 290.6343 15.30217741 11507
STARLINK-33917          
1 64181U 25113M   25213.51474734  .00023569  00000+0  80528-3 0  9990
2 64181  53.1593  33.9400 0001113 104.9575 255.1549 15.30202833 11352
STARLINK-34131          
1 64182U 25113N   25214.87263556  .00025412  00000+0  86678-3 0  9990
2 64182  53.1626  27.4832 0000570 157.5865 202.5161 15.30214934 11473
