[{"OBJECT_NAME":"STARLINK-34313","OBJECT_ID":"2025-112W","EPOCH":"2025-08-02T22:00:01.999584","MEAN_MOTION":15.05648416,"ECCENTRICITY":0.000269,"INCLINATION":97.6044,"RA_OF_ASC_NODE":265.9098,"ARG_OF_PERICENTER":65.458,"MEAN_ANOMALY":195.0631,"EPHEMERIS_TYPE":0,"CLASSIFICATION_TYPE":"U","NORAD_CAT_ID":64166,"ELEMENT_SET_NO":999,"REV_AT_EPOCH":1143,"BSTAR":0.00076836,"MEAN_MOTION_DOT":0.00011043,"MEAN_MOTION_DDOT":0},{"OBJECT_NAME":"STARLINK-34309","OBJECT_ID":"2025-112X","EPOCH":"2025-08-02T14:00:01.000224","MEAN_MOTION":15.05631683,"ECCENTRICITY":0.0001114,"INCLINATION":97.6033,"RA_OF_ASC_NODE":265.5983,"ARG_OF_PERICENTER":74.1914,"MEAN_ANOMALY":225.5938,"EPHEMERIS_TYPE":0,"CLASSIFICATION_TYPE":"U","NORAD_CAT_ID":64167,"ELEMENT_SET_NO":999,"REV_AT_EPOCH":589,"BSTAR":0.0043178,"MEAN_MOTION_DOT":0.00062762,"MEAN_MOTION_DDOT":0},{"OBJECT_NAME":"STARLINK-34303","OBJECT_ID":"2025-112Y","EPOCH":"2025-08-02T14:17:21.162048","MEAN_MOTION":15.06448914,"ECCENTRICITY":0.0002045,"INCLINATION":97.6035,"RA_OF_ASC_NODE":265.611,"ARG_OF_PERICENTER":99.9056,"MEAN_ANOMALY":260.2402,"EPHEMERIS_TYPE":0,"CLASSIFICATION_TYPE":"U","NORAD_CAT_ID":64168,"ELEMENT_SET_NO":999,"REV_AT_EPOCH":1154,"BSTAR":0.00022932,"MEAN_MOTION_DOT":3.321e-5,"MEAN_MOTION_DDOT":0},{"OBJECT_NAME":"STARLINK-34175","OBJECT_ID":"2025-112Z","EPOCH":"2025-08-02T02:34:40.919520","MEAN_MOTION":15.06482911,"ECCENTRICITY":3.38e-5,"INCLINATION":97.6021,"RA_OF_ASC_NODE":265.0226,"ARG_OF_PERICENTER":118.7417,"MEAN_ANOMALY":241.3844,"EPHEMERIS_TYPE":0,"CLASSIFICATION_TYPE":"U","NORAD_CAT_ID":64169,"ELEMENT_SET_NO":999,"REV_AT_EPOCH":1026,"BSTAR":0.00024377,"MEAN_MOTION_DOT":3.538e-5,"MEAN_MOTION_DDOT":0},{"OBJECT_NAME":"STARLINK-34177","OBJECT_ID":"2025-113A","EPOCH":"2025-08-02T20:45:58.324032","MEAN_MOTION":15.30221336,"ECCENTRICITY":0.0002298,"INCLINATION":53.1616,"RA_OF_ASC_NODE":27.4471,"ARG_OF_PERICENTER":74.9981,"MEAN_ANOMALY":285.1274,"EPHEMERIS_TYPE":0,"CLASSIFICATION_TYPE":"U","NORAD_CAT_ID":64170,"ELEMENT_SET_NO":999,"REV_AT_EPOCH":1156,"BSTAR":0.001074,"MEAN_MOTION_DOT":0.00031607,"MEAN_MOTION_DDOT":0},{"OBJECT_NAME":"STARLINK-34228","OBJECT_ID":"2025-113B","EPOCH":"2025-08-02T12:28:20.647488","MEAN_MOTION":15.30225594,"ECCENTRICITY":0.000173,"INCLINATION":53.16,"RA_OF_ASC_NODE":28.8447,"ARG_OF_PERICENTER":327.0558,"MEAN_ANOMALY":33.0334,"EPHEMERIS_TYPE":0,"CLASSIFICATION_TYPE":"U","NORAD_CAT_ID":64171,"ELEMENT_SET_NO":999,"REV_AT_EPOCH":1151,"BSTAR":0.0010215,"MEAN_MOTION_DOT":0.00030041,"MEAN_MOTION_DDOT":0},{"OBJECT_NAME":"STARLINK-34233","OBJECT_ID":"2025-113C","EPOCH":"2025-08-02T11:41:24.099072","MEAN_MOTION":15.30209393,"ECCENTRICITY":0.000156,"INCLINATION":53.1611,"RA_OF_ASC_NODE":29.3537,"ARG_OF_PERICENTER":84.4768,"MEAN_ANOMALY":275.6411,"EPHEMERIS_TYPE":0,"CLASSIFICATION_TYPE":"U","NORAD_CAT_ID":64172,"ELEMENT_SET_NO":999,"REV_AT_EPOCH":1150,"BSTAR":0.0010615,"MEAN_MOTION_DOT":0.00031221,"MEAN_MOTION_DDOT":0},{"OBJECT_NAME":"STARLINK-34172","OBJECT_ID":"2025-113D","EPOCH":"2025-08-02T20:20:07.816416","MEAN_MOTION":15.30201593,"ECCENTRICITY":0.0001146,"INCLINATION":53.1583,"RA_OF_ASC_NODE":27.3346,"ARG_OF_PERICENTER":87.6452,"MEAN_ANOMALY":272.468,"EPHEMERIS_TYPE":0,"CLASSIFICATION_TYPE":"U","NORAD_CAT_ID":64173,"ELEMENT_SET_NO":999,"REV_AT_EPOCH":1152,"BSTAR":0.0007357,"MEAN_MOTION_DOT":0.00021494,"MEAN_MOTION_DDOT":0},{"OBJECT_NAME":"STARLINK-34202","OBJECT_ID":"2025-113E","EPOCH":"2025-08-02T20:55:04.615680","MEAN_MOTION":15.30223625,"ECCENTRICITY":5.49e-5,"INCLINATION":53.1617,"RA_OF_ASC_NODE":27.4823,"ARG_OF_PERICENTER":320.2766,"MEAN_ANOMALY":39.8195,"EPHEMERIS_TYPE":0,"CLASSIFICATION_TYPE":"U","NORAD_CAT_ID":64174,"ELEMENT_SET_NO":999,"REV_AT_EPOCH":1156,"BSTAR":0.00071244,"MEAN_MOTION_DOT":0.00020816,"MEAN_MOTION_DDOT":0},{"OBJECT_NAME":"STARLINK-34231","OBJECT_ID":"2025-113F","EPOCH":"2025-08-02T11:53:33.440352","MEAN_MOTION":15.30221084,"ECCENTRICITY":0.0001962,"INCLINATION":53.1602,"RA_OF_ASC_NODE":29.4006,"ARG_OF_PERICENTER":322.8711,"MEAN_ANOMALY":37.2154,"EPHEMERIS_TYPE":0,"CLASSIFICATION_TYPE":"U","NORAD_CAT_ID":64175,"ELEMENT_SET_NO":999,"REV_AT_EPOCH":1150,"BSTAR":0.0010544,"MEAN_MOTION_DOT":0.0003102,"MEAN_MOTION_DDOT":0},{"OBJECT_NAME":"STARLINK-34191","OBJECT_ID":"2025-113G","EPOCH":"2025-08-02T12:10:06.603168","MEAN_MOTION":15.30212646,"ECCENTRICITY":9.27e-5,"INCLINATION":53.1582,"RA_OF_ASC_NODE":28.7623,"ARG_OF_PERICENTER":347.8743,"MEAN_ANOMALY":12.2236,"EPHEMERIS_TYPE":0,"CLASSIFICATION_TYPE":"U","NORAD_CAT_ID":64176,"ELEMENT_SET_NO":999,"REV_AT_EPOCH":1151,"BSTAR":0.00084575,"MEAN_MOTION_DOT":0.00024783,"MEAN_MOTION_DDOT":0},{"OBJECT_NAME":"STARLINK-34164","OBJECT_ID":"2025-113H","EPOCH":"2025-08-02T12:04:12.621504","MEAN_MOTION":15.30226001,"ECCENTRICITY":0.0001318,"INCLINATION":53.1602,"RA_OF_ASC_NODE":29.4505,"ARG_OF_PERICENTER":84.9883,"MEAN_ANOMALY":275.1268,"EPHEMERIS_TYPE":0,"CLASSIFICATION_TYPE":"U","NORAD_CAT_ID":64177,"ELEMENT_SET_NO":999,"REV_AT_EPOCH":1150,"BSTAR":0.00076533,"MEAN_MOTION_DOT":0.00022394,"MEAN_MOTION_DDOT":0},{"OBJECT_NAME":"STARLINK-34227","OBJECT_ID":"2025-113J","EPOCH":"2025-08-02T20:59:38.037984","MEAN_MOTION":15.30274395,"ECCENTRICITY":0.0001659,"INCLINATION":53.1613,"RA_OF_ASC_NODE":27.5031,"ARG_OF_PERICENTER":143.054,"MEAN_ANOMALY":217.0576,"EPHEMERIS_TYPE":0,"CLASSIFICATION_TYPE":"U","NORAD_CAT_ID":64178,"ELEMENT_SET_NO":999,"REV_AT_EPOCH":1156,"BSTAR":0.0012645,"MEAN_MOTION_DOT":0.00037367,"MEAN_MOTION_DDOT":0},{"OBJECT_NAME":"STARLINK-34194","OBJECT_ID":"2025-113K","EPOCH":"2025-08-02T12:17:43.959840","MEAN_MOTION":15.30208857,"ECCENTRICITY":0.0001998,"INCLINATION":53.1594,"RA_OF_ASC_NODE":28.7986,"ARG_OF_PERICENTER":316.4942,"MEAN_ANOMALY":43.5901,"EPHEMERIS_TYPE":0,"CLASSIFICATION_TYPE":"U","NORAD_CAT_ID":64179,"ELEMENT_SET_NO":999,"REV_AT_EPOCH":1151,"BSTAR":0.0013118,"MEAN_MOTION_DOT":0.00038707,"MEAN_MOTION_DDOT":0},{"OBJECT_NAME":"STARLINK-34000","OBJECT_ID":"2025-113L","EPOCH":"2025-08-02T20:38:22.727328","MEAN_MOTION":15.30217741,"ECCENTRICITY":0.0002968,"INCLINATION":53.161,"RA_OF_ASC_NODE":27.4097,"ARG_OF_PERICENTER":69.4976,"MEAN_ANOMALY":290.6343,"EPHEMERIS_TYPE":0,"CLASSIFICATION_TYPE":"U","NORAD_CAT_ID":64180,"ELEMENT_SET_NO":999,"REV_AT_EPOCH":1150,"BSTAR":0.001091,"MEAN_MOTION_DOT":0.00032113,"MEAN_MOTION_DDOT":0},{"OBJECT_NAME":"STARLINK-33917","OBJECT_ID":"2025-113M","EPOCH":"2025-08-01T12:21:14.170176","MEAN_MOTION":15.30202833,"ECCENTRICITY":0.0001113,"INCLINATION":53.1593,"RA_OF_ASC_NODE":33.94,"ARG_OF_PERICENTER":104.9575,"MEAN_ANOMALY":255.1549,"EPHEMERIS_TYPE":0,"CLASSIFICATION_TYPE":"U","NORAD_CAT_ID":64181,"ELEMENT_SET_NO":999,"REV_AT_EPOCH":1135,"BSTAR":0.00080528,"MEAN_MOTION_DOT":0.00023569,"MEAN_MOTION_DDOT":0},{"OBJECT_NAME":"STARLINK-34131","OBJECT_ID":"2025-113N","EPOCH":"2025-08-02T20:56:35.712384","MEAN_MOTION":15.30214934,"ECCENTRICITY":5.7e-5,"INCLINATION":53.1626,"RA_OF_ASC_NODE":27.4832,"ARG_OF_PERICENTER":157.5865,"MEAN_ANOMALY":202.5161,"EPHEMERIS_TYPE":0,"CLASSIFICATION_TYPE":"U","NORAD_CAT_ID":64182,"ELEMENT_SET_NO":999,"REV_AT_EPOCH":1147,"BSTAR":0.00086678,"MEAN_MOTION_DOT":0.00025412,"MEAN_MOTION_DDOT":0}]
